TRANSPORTER-16 OBJECT BC
1 68466U 26067BC  26104.25002315  .00083601  00000+0  40992-2 0  9995
2 68466  97.4502  63.6764 0000984 192.2845  65.2682 15.17762560  2183
