{
  "norad_id": 68466,
  "name": "TRANSPORTER-16 OBJECT BC",
  "history": [
    {
      "epoch": "2026-04-14T06:00:02.000160Z",
      "apogee_km": 513.2828504128001,
      "perigee_km": 511.9259256186715,
      "latitude_deg": -75.64033818403047,
      "longitude_deg": -79.29190334938853,
      "height_km": 539.7225681336929,
      "semi_major_axis_km": 6890.7413880157355,
      "eccentricity": 9.846e-05,
      "inclination_deg": 97.4502,
      "raan_deg": 63.6764,
      "arg_perigee_deg": 192.2845,
      "mean_anomaly_deg": 65.2682,
      "mean_motion_rev_day": 15.1776256
    }
  ]
}